[{"OBJECT_NAME":"STARLINK-4378","OBJECT_ID":"2022-099M","EPOCH":"2026-03-09T21:57:07.425792","MEAN_MOTION":15.01253303,"ECCENTRICITY":8.015e-5,"INCLINATION":97.6016,"RA_OF_ASC_NODE":190.4295,"ARG_OF_PERICENTER":205.3589,"MEAN_ANOMALY":154.7596,"EPHEMERIS_TYPE":0,"CLASSIFICATION_TYPE":"U","NORAD_CAT_ID":53476,"ELEMENT_SET_NO":999,"REV_AT_EPOCH":19601,"BSTAR":-1.8950603e-5,"MEAN_MOTION_DOT":-3.02e-6,"MEAN_MOTION_DDOT":0},{"OBJECT_NAME":"TIANPING 3B-01","OBJECT_ID":"2024-189B","EPOCH":"2026-03-09T23:37:36.067008","MEAN_MOTION":15.0098675,"ECCENTRICITY":0.00018984,"INCLINATION":97.5338,"RA_OF_ASC_NODE":92.2159,"ARG_OF_PERICENTER":36.3384,"MEAN_ANOMALY":323.7969,"EPHEMERIS_TYPE":0,"CLASSIFICATION_TYPE":"U","NORAD_CAT_ID":61615,"ELEMENT_SET_NO":999,"REV_AT_EPOCH":7556,"BSTAR":0.00029959959,"MEAN_MOTION_DOT":3.765e-5,"MEAN_MOTION_DDOT":0}]
